{
  "norad_id": 64366,
  "name": "STARLINK-34484",
  "history": [
    {
      "epoch": "2026-03-28T21:42:22.436640Z",
      "apogee_km": 573.8360366466177,
      "perigee_km": 570.2245907070856,
      "latitude_deg": -3.235566620417216e-05,
      "longitude_deg": -166.04937692676768,
      "height_km": 574.475846318244,
      "semi_major_axis_km": 6950.167313676851,
      "eccentricity": 0.00025981,
      "inclination_deg": 70.0031,
      "raan_deg": 345.8623,
      "arg_perigee_deg": 269.4209,
      "mean_anomaly_deg": 90.6652,
      "mean_motion_rev_day": 14.98338271
    },
    {
      "epoch": "2026-03-29T02:30:46.499904Z",
      "apogee_km": 573.865078115,
      "perigee_km": 570.1828828275466,
      "latitude_deg": -5.05815783092416e-05,
      "longitude_deg": 121.14804938543371,
      "height_km": 574.48028709607,
      "semi_major_axis_km": 6950.160980471273,
      "eccentricity": 0.0002649,
      "inclination_deg": 70.003,
      "raan_deg": 345.3574,
      "arg_perigee_deg": 269.0983,
      "mean_anomaly_deg": 90.9872,
      "mean_motion_rev_day": 14.98340319
    },
    {
      "epoch": "2026-03-30T00:56:39.528960Z",
      "apogee_km": 573.8512274911654,
      "perigee_km": 570.2151764483024,
      "latitude_deg": 6.631696292513392e-05,
      "longitude_deg": 141.39871305504948,
      "height_km": 574.4484531313943,
      "semi_major_axis_km": 6950.170201969733,
      "eccentricity": 0.00026158,
      "inclination_deg": 70.0032,
      "raan_deg": 343.0002,
      "arg_perigee_deg": 270.3795,
      "mean_anomaly_deg": 89.7065,
      "mean_motion_rev_day": 14.98337337
    },
    {
      "epoch": "2026-03-30T10:33:27.897408Z",
      "apogee_km": 573.9285477584499,
      "perigee_km": 570.147374572578,
      "latitude_deg": -3.1025365785572135e-05,
      "longitude_deg": -4.207166686727411,
      "height_km": 574.4628155509179,
      "semi_major_axis_km": 6950.174961165514,
      "eccentricity": 0.00027202,
      "inclination_deg": 70.0029,
      "raan_deg": 341.9907,
      "arg_perigee_deg": 270.0768,
      "mean_anomaly_deg": 90.0079,
      "mean_motion_rev_day": 14.98335798
    },
    {
      "epoch": "2026-03-30T23:22:32.555424Z",
      "apogee_km": 573.9023226237541,
      "perigee_km": 570.2030146707211,
      "latitude_deg": -9.037886025697335e-06,
      "longitude_deg": 161.65061855350692,
      "height_km": 574.4562627689485,
      "semi_major_axis_km": 6950.189668647237,
      "eccentricity": 0.00026613,
      "inclination_deg": 70.003,
      "raan_deg": 340.6443,
      "arg_perigee_deg": 270.7351,
      "mean_anomaly_deg": 89.3503,
      "mean_motion_rev_day": 14.98331042
    },
    {
      "epoch": "2026-03-31T02:34:48.565920Z",
      "apogee_km": 573.9212762910238,
      "perigee_km": 570.1501125870209,
      "latitude_deg": -2.0256284678333706e-05,
      "longitude_deg": 113.11590229740499,
      "height_km": 574.4978798151247,
      "semi_major_axis_km": 6950.172694439022,
      "eccentricity": 0.0002713,
      "inclination_deg": 70.0028,
      "raan_deg": 340.3079,
      "arg_perigee_deg": 268.9423,
      "mean_anomaly_deg": 91.1425,
      "mean_motion_rev_day": 14.98336531
    },
    {
      "epoch": "2026-04-01T02:36:49.703040Z",
      "apogee_km": 573.9726280032191,
      "perigee_km": 570.1154165394782,
      "latitude_deg": -8.749402029592216e-06,
      "longitude_deg": 109.09964294918986,
      "height_km": 574.4410306172874,
      "semi_major_axis_km": 6950.181022271348,
      "eccentricity": 0.00027749,
      "inclination_deg": 70.003,
      "raan_deg": 337.7834,
      "arg_perigee_deg": 270.9042,
      "mean_anomaly_deg": 89.1799,
      "mean_motion_rev_day": 14.98333838
    },
    {
      "epoch": "2026-04-02T09:03:22.662432Z",
      "apogee_km": 573.635163231842,
      "perigee_km": 570.3820780726392,
      "latitude_deg": 6.237631061714833e-06,
      "longitude_deg": 8.014990348643215,
      "height_km": 574.4680054762491,
      "semi_major_axis_km": 6950.14562065224,
      "eccentricity": 0.00023403,
      "inclination_deg": 70.0038,
      "raan_deg": 334.5863,
      "arg_perigee_deg": 268.8614,
      "mean_anomaly_deg": 91.2277,
      "mean_motion_rev_day": 14.98345286
    }
  ]
}